start=new Date('2021-12-12T00:00:00.000Z').valueOf();
sats=[{"TLE_LINE1":"1 48573U 21041W   21345.86542481 -.00000914  00000-0 -42449-4 0  9991","PERIOD":"95.592","MEAN_MOTION_DDOT":"0.0000000000000","REF_FRAME":"TEME","ARG_OF_PERICENTER":"64.1822","RCS_SIZE":"LARGE","INCLINATION":"53.0537","OBJECT_NAME":"STARLINK-2224","PERIAPSIS":"545.480","TLE_LINE2":"2 48573  53.0537 244.5571 0002514  64.1822 295.9426 15.06397601 31756","ECCENTRICITY":"0.00025140","TIME_SYSTEM":"UTC","BSTAR":"-0.00004244900000","MEAN_ELEMENT_THEORY":"SGP4","REV_AT_EPOCH":"3175","MEAN_MOTION_DOT":"-0.00000914","GP_ID":"191524339","EPOCH":"2021-12-11T20:46:12.703584","FILE":"3237650","EPHEMERIS_TYPE":"0","COUNTRY_CODE":"US","OBJECT_TYPE":"PAYLOAD","NORAD_CAT_ID":"48573","RA_OF_ASC_NODE":"244.5571","CLASSIFICATION_TYPE":"U","SITE":"AFETR","LAUNCH_DATE":"2021-05-15","ELEMENT_SET_NO":"999","MEAN_MOTION":"15.06397601","CENTER_NAME":"EARTH","OBJECT_ID":"2021-041W","DECAY_DATE":null,"APOAPSIS":"548.962","SEMIMAJOR_AXIS":"6925.356","MEAN_ANOMALY":"295.9426"},{"OBJECT_TYPE":"PAYLOAD","COUNTRY_CODE":"US","NORAD_CAT_ID":"48574","CLASSIFICATION_TYPE":"U","RA_OF_ASC_NODE":"214.3701","LAUNCH_DATE":"2021-05-15","SITE":"AFETR","CENTER_NAME":"EARTH","OBJECT_ID":"2021-041X","ELEMENT_SET_NO":"999","MEAN_MOTION":"15.06394835","SEMIMAJOR_AXIS":"6925.364","APOAPSIS":"548.995","DECAY_DATE":null,"MEAN_ANOMALY":"53.8391","TLE_LINE1":"1 48574U 21041X   21345.91667824 -.00038543  00000-0 -25828-2 0  9996","REF_FRAME":"TEME","MEAN_MOTION_DDOT":"0.0000000000000","PERIOD":"95.592","INCLINATION":"53.0439","RCS_SIZE":"LARGE","ARG_OF_PERICENTER":"74.5616","PERIAPSIS":"545.464","OBJECT_NAME":"STARLINK-2225","MEAN_ELEMENT_THEORY":"SGP4","BSTAR":"-0.00258280000000","TIME_SYSTEM":"UTC","ECCENTRICITY":"0.00025490","TLE_LINE2":"2 48574  53.0439 214.3701 0002549  74.5616  53.8391 15.06394835  3591","MEAN_MOTION_DOT":"-0.00038543","REV_AT_EPOCH":"359","GP_ID":"191524162","EPHEMERIS_TYPE":"0","FILE":"3237650","EPOCH":"2021-12-11T22:00:00.999936"},{"REF_FRAME":"TEME","PERIOD":"93.473","MEAN_MOTION_DDOT":"0.0000000000000","TLE_LINE1":"1 48575U 21041Y   21345.91667824 -.01058079  00000-0 -27870-1 0  9992","PERIAPSIS":"442.432","OBJECT_NAME":"STARLINK-2227","INCLINATION":"53.0547","ARG_OF_PERICENTER":"13.2431","RCS_SIZE":"LARGE","MEAN_MOTION_DOT":"-0.01058079","REV_AT_EPOCH":"364","TIME_SYSTEM":"UTC","BSTAR":"-0.02787000000000","MEAN_ELEMENT_THEORY":"SGP4","TLE_LINE2":"2 48575  53.0547 205.9732 0002974  13.2431 293.9038 15.40558710  3642","ECCENTRICITY":"0.00029740","EPOCH":"2021-12-11T22:00:00.999936","EPHEMERIS_TYPE":"0","FILE":"3237650","GP_ID":"191523602","NORAD_CAT_ID":"48575","COUNTRY_CODE":"US","OBJECT_TYPE":"PAYLOAD","SITE":"AFETR","LAUNCH_DATE":"2021-05-15","RA_OF_ASC_NODE":"205.9732","CLASSIFICATION_TYPE":"U","OBJECT_ID":"2021-041Y","CENTER_NAME":"EARTH","MEAN_MOTION":"15.40558710","ELEMENT_SET_NO":"999","MEAN_ANOMALY":"293.9038","SEMIMAJOR_AXIS":"6822.596","DECAY_DATE":null,"APOAPSIS":"446.490"},{"OBJECT_TYPE":"PAYLOAD","COUNTRY_CODE":"US","NORAD_CAT_ID":"48576","CLASSIFICATION_TYPE":"U","RA_OF_ASC_NODE":"219.2413","LAUNCH_DATE":"2021-05-15","SITE":"AFETR","OBJECT_ID":"2021-041Z","CENTER_NAME":"EARTH","ELEMENT_SET_NO":"999","MEAN_MOTION":"15.06399491","SEMIMAJOR_AXIS":"6925.350","APOAPSIS":"548.511","DECAY_DATE":null,"MEAN_ANOMALY":"337.5466","TLE_LINE1":"1 48576U 21041Z   21345.91667824 -.00019623  00000-0 -13021-2 0  9998","REF_FRAME":"TEME","MEAN_MOTION_DDOT":"0.0000000000000","PERIOD":"95.592","INCLINATION":"53.0540","RCS_SIZE":"LARGE","ARG_OF_PERICENTER":"17.9812","PERIAPSIS":"545.919","OBJECT_NAME":"STARLINK-2228","MEAN_ELEMENT_THEORY":"SGP4","BSTAR":"-0.00130210000000","TIME_SYSTEM":"UTC","ECCENTRICITY":"0.00018710","TLE_LINE2":"2 48576  53.0540 219.2413 0001871  17.9812 337.5466 15.06399491  3583","REV_AT_EPOCH":"358","MEAN_MOTION_DOT":"-0.00019623","GP_ID":"191523786","EPHEMERIS_TYPE":"0","FILE":"3237650","EPOCH":"2021-12-11T22:00:00.999936"},{"TLE_LINE1":"1 48577U 21041AA  21345.72536575  .00000840  00000-0  75307-4 0  9992","REF_FRAME":"TEME","MEAN_MOTION_DDOT":"0.0000000000000","PERIOD":"95.592","INCLINATION":"53.0538","RCS_SIZE":"LARGE","ARG_OF_PERICENTER":"66.3288","PERIAPSIS":"545.558","OBJECT_NAME":"STARLINK-2231","MEAN_ELEMENT_THEORY":"SGP4","BSTAR":"0.00007530700000","TIME_SYSTEM":"UTC","ECCENTRICITY":"0.00024050","TLE_LINE2":"2 48577  53.0538 245.1917 0002405  66.3288 293.7953 15.06396720 31731","MEAN_MOTION_DOT":"0.00000840","REV_AT_EPOCH":"3173","GP_ID":"191523978","FILE":"3237650","EPHEMERIS_TYPE":"0","EPOCH":"2021-12-11T17:24:31.600800","OBJECT_TYPE":"PAYLOAD","COUNTRY_CODE":"US","NORAD_CAT_ID":"48577","CLASSIFICATION_TYPE":"U","RA_OF_ASC_NODE":"245.1917","LAUNCH_DATE":"2021-05-15","SITE":"AFETR","CENTER_NAME":"EARTH","OBJECT_ID":"2021-041AA","MEAN_MOTION":"15.06396720","ELEMENT_SET_NO":"999","SEMIMAJOR_AXIS":"6925.359","APOAPSIS":"548.889","DECAY_DATE":null,"MEAN_ANOMALY":"293.7953"},{"MEAN_ANOMALY":"297.6088","SEMIMAJOR_AXIS":"6925.354","APOAPSIS":"548.910","DECAY_DATE":null,"OBJECT_ID":"2021-041AB","CENTER_NAME":"EARTH","ELEMENT_SET_NO":"999","MEAN_MOTION":"15.06398288","LAUNCH_DATE":"2021-05-15","SITE":"AFETR","CLASSIFICATION_TYPE":"U","RA_OF_ASC_NODE":"245.2732","NORAD_CAT_ID":"48578","OBJECT_TYPE":"PAYLOAD","COUNTRY_CODE":"US","FILE":"3237650","EPHEMERIS_TYPE":"0","EPOCH":"2021-12-11T16:56:37.280256","GP_ID":"191524524","REV_AT_EPOCH":"3173","MEAN_MOTION_DOT":"0.00000893","MEAN_ELEMENT_THEORY":"SGP4","BSTAR":"0.00007888300000","TIME_SYSTEM":"UTC","ECCENTRICITY":"0.00024420","TLE_LINE2":"2 48578  53.0561 245.2732 0002442  62.5149 297.6088 15.06398288 31732","PERIAPSIS":"545.528","OBJECT_NAME":"STARLINK-2232","INCLINATION":"53.0561","RCS_SIZE":"LARGE","ARG_OF_PERICENTER":"62.5149","REF_FRAME":"TEME","MEAN_MOTION_DDOT":"0.0000000000000","PERIOD":"95.592","TLE_LINE1":"1 48578U 21041AB  21345.70598704  .00000893  00000-0  78883-4 0  9993"},{"SEMIMAJOR_AXIS":"6925.339","DECAY_DATE":null,"APOAPSIS":"548.835","MEAN_ANOMALY":"290.6492","CENTER_NAME":"EARTH","OBJECT_ID":"2021-041AC","ELEMENT_SET_NO":"999","MEAN_MOTION":"15.06402962","RA_OF_ASC_NODE":"245.2452","CLASSIFICATION_TYPE":"U","SITE":"AFETR","LAUNCH_DATE":"2021-05-15","COUNTRY_CODE":"US","OBJECT_TYPE":"PAYLOAD","NORAD_CAT_ID":"48579","GP_ID":"191523240","EPOCH":"2021-12-11T17:08:35.318688","EPHEMERIS_TYPE":"0","FILE":"3237650","TIME_SYSTEM":"UTC","MEAN_ELEMENT_THEORY":"SGP4","BSTAR":"0.00006375200000","TLE_LINE2":"2 48579  53.0561 245.2452 0002354  69.4750 290.6492 15.06402962 31735","ECCENTRICITY":"0.00023540","REV_AT_EPOCH":"3173","MEAN_MOTION_DOT":"0.00000668","INCLINATION":"53.0561","ARG_OF_PERICENTER":"69.4750","RCS_SIZE":"LARGE","PERIAPSIS":"545.574","OBJECT_NAME":"STARLINK-2233","TLE_LINE1":"1 48579U 21041AC  21345.71429767  .00000668  00000-0  63752-4 0  9996","REF_FRAME":"TEME","PERIOD":"95.592","MEAN_MOTION_DDOT":"0.0000000000000"},{"MEAN_MOTION_DOT":"-0.00018140","REV_AT_EPOCH":"358","TIME_SYSTEM":"UTC","MEAN_ELEMENT_THEORY":"SGP4","BSTAR":"-0.00120200000000","TLE_LINE2":"2 48580  53.0545 219.3327 0003422  69.7979 131.0179 15.06394548  3587","ECCENTRICITY":"0.00034220","EPOCH":"2021-12-11T22:00:00.999936","FILE":"3237650","EPHEMERIS_TYPE":"0","GP_ID":"191523425","REF_FRAME":"TEME","PERIOD":"95.592","MEAN_MOTION_DDOT":"0.0000000000000","TLE_LINE1":"1 48580U 21041AD  21345.91667824 -.00018140  00000-0 -12020-2 0  9994","PERIAPSIS":"544.860","OBJECT_NAME":"STARLINK-2234","INCLINATION":"53.0545","ARG_OF_PERICENTER":"69.7979","RCS_SIZE":"LARGE","OBJECT_ID":"2021-041AD","CENTER_NAME":"EARTH","MEAN_MOTION":"15.06394548","ELEMENT_SET_NO":"999","MEAN_ANOMALY":"131.0179","SEMIMAJOR_AXIS":"6925.365","DECAY_DATE":null,"APOAPSIS":"549.600","NORAD_CAT_ID":"48580","COUNTRY_CODE":"US","OBJECT_TYPE":"PAYLOAD","SITE":"AFETR","LAUNCH_DATE":"2021-05-15","RA_OF_ASC_NODE":"219.3327","CLASSIFICATION_TYPE":"U"},{"TLE_LINE1":"1 48581U 21041AE  21345.91667824 -.00015700  00000-0 -10378-2 0  9998","MEAN_MOTION_DDOT":"0.0000000000000","PERIOD":"95.593","REF_FRAME":"TEME","RCS_SIZE":"LARGE","ARG_OF_PERICENTER":"89.4136","INCLINATION":"53.0624","OBJECT_NAME":"STARLINK-2235","PERIAPSIS":"546.181","ECCENTRICITY":"0.00015530","TLE_LINE2":"2 48581  53.0624 209.2697 0001553  89.4136 326.4685 15.06385848  3610","MEAN_ELEMENT_THEORY":"SGP4","BSTAR":"-0.00103780000000","TIME_SYSTEM":"UTC","MEAN_MOTION_DOT":"-0.00015700","REV_AT_EPOCH":"361","GP_ID":"191524340","FILE":"3237650","EPHEMERIS_TYPE":"0","EPOCH":"2021-12-11T22:00:00.999936","OBJECT_TYPE":"PAYLOAD","COUNTRY_CODE":"US","NORAD_CAT_ID":"48581","CLASSIFICATION_TYPE":"U","RA_OF_ASC_NODE":"209.2697","LAUNCH_DATE":"2021-05-15","SITE":"AFETR","MEAN_MOTION":"15.06385848","ELEMENT_SET_NO":"999","CENTER_NAME":"EARTH","OBJECT_ID":"2021-041AE","APOAPSIS":"548.332","DECAY_DATE":null,"SEMIMAJOR_AXIS":"6925.392","MEAN_ANOMALY":"326.4685"},{"MEAN_MOTION":"15.06380199","ELEMENT_SET_NO":"999","OBJECT_ID":"2021-041AF","CENTER_NAME":"EARTH","MEAN_ANOMALY":"166.3104","APOAPSIS":"548.848","DECAY_DATE":null,"SEMIMAJOR_AXIS":"6925.409","NORAD_CAT_ID":"48582","OBJECT_TYPE":"PAYLOAD","COUNTRY_CODE":"US","LAUNCH_DATE":"2021-05-15","SITE":"AFETR","CLASSIFICATION_TYPE":"U","RA_OF_ASC_NODE":"209.3277","MEAN_MOTION_DOT":"-0.00009634","REV_AT_EPOCH":"358","ECCENTRICITY":"0.00022720","TLE_LINE2":"2 48582  53.0521 209.3277 0002272  69.5845 166.3104 15.06380199  3584","BSTAR":"-0.00062903000000","MEAN_ELEMENT_THEORY":"SGP4","TIME_SYSTEM":"UTC","FILE":"3237650","EPHEMERIS_TYPE":"0","EPOCH":"2021-12-11T22:00:00.999936","GP_ID":"191524163","MEAN_MOTION_DDOT":"0.0000000000000","PERIOD":"95.593","REF_FRAME":"TEME","TLE_LINE1":"1 48582U 21041AF  21345.91667824 -.00009634  00000-0 -62903-3 0  9990","OBJECT_NAME":"STARLINK-2236","PERIAPSIS":"545.701","RCS_SIZE":"LARGE","ARG_OF_PERICENTER":"69.5845","INCLINATION":"53.0521"}];
